{
  "type": "FeatureCollection",
  "features": [
    {
      "type": "Feature",
      "properties": {
        "norad_id": 34141,
        "name": "COSMOS 2251 DEB",
        "group": "cosmos-2251-debris",
        "lat": -66.96854834672288,
        "lon": -133.08455529933104,
        "alt_km": 766.7930005330118,
        "timestamp": "2025-12-25T16:53:15.057610+00:00",
        "meta_object_name": "COSMOS 2251 DEB",
        "meta_object_id": "1993-036LN",
        "meta_epoch": "2025-12-25T01:07:49.365696",
        "meta_mean_motion": 14.49360741,
        "meta_eccentricity": 0.00464964,
        "meta_inclination": 74.0115,
        "meta_ra_of_asc_node": 5.7385,
        "meta_arg_of_pericenter": 87.5737,
        "meta_mean_anomaly": 341.1965,
        "meta_ephemeris_type": 0,
        "meta_classification_type": "U",
        "meta_norad_cat_id": 34141,
        "meta_element_set_no": 999,
        "meta_rev_at_epoch": 87872,
        "meta_bstar": 0.0014682006,
        "meta_mean_motion_dot": 5.665e-05,
        "meta_mean_motion_ddot": 0,
        "tle_line1": "1 34141U 93036LN  25359.04709914  .00005665  00000+0  14682-2 0  9996",
        "tle_line2": "2 34141  74.0115   5.7385 0046496  87.5737 341.1965 14.49360741878727"
      },
      "geometry": {
        "type": "Point",
        "coordinates": [
          -133.08455529933104,
          -66.96854834672288
        ]
      }
    },
    {
      "type": "Feature",
      "properties": {
        "norad_id": 34270,
        "name": "COSMOS 2251 DEB",
        "group": "cosmos-2251-debris",
        "lat": -48.974788541539255,
        "lon": 120.88535464916664,
        "alt_km": 714.9199847883201,
        "timestamp": "2025-12-25T16:53:15.057620+00:00",
        "meta_object_name": "COSMOS 2251 DEB",
        "meta_object_id": "1993-036LQ",
        "meta_epoch": "2025-12-25T01:05:22.044192",
        "meta_mean_motion": 14.6525667,
        "meta_eccentricity": 0.00482091,
        "meta_inclination": 74.0115,
        "meta_ra_of_asc_node": 282.9126,
        "meta_arg_of_pericenter": 71.9327,
        "meta_mean_anomaly": 288.7084,
        "meta_ephemeris_type": 0,
        "meta_classification_type": "U",
        "meta_norad_cat_id": 34270,
        "meta_element_set_no": 999,
        "meta_rev_at_epoch": 89276,
        "meta_bstar": 0.00065283883,
        "meta_mean_motion_dot": 3.549e-05,
        "meta_mean_motion_ddot": 0,
        "tle_line1": "1 34270U 93036LQ  25359.04539403  .00003549  00000+0  65284-3 0  9997",
        "tle_line2": "2 34270  74.0115 282.9126 0048209  71.9327 288.7084 14.65256670892769"
      },
      "geometry": {
        "type": "Point",
        "coordinates": [
          120.88535464916664,
          -48.974788541539255
        ]
      }
    },
    {
      "type": "Feature",
      "properties": {
        "norad_id": 34271,
        "name": "COSMOS 2251 DEB",
        "group": "cosmos-2251-debris",
        "lat": 72.2088430074932,
        "lon": -122.61203782366893,
        "alt_km": 660.8634855047021,
        "timestamp": "2025-12-25T16:53:15.057630+00:00",
        "meta_object_name": "COSMOS 2251 DEB",
        "meta_object_id": "1993-036LR",
        "meta_epoch": "2025-12-24T23:08:32.831232",
        "meta_mean_motion": 14.71028342,
        "meta_eccentricity": 0.00181326,
        "meta_inclination": 74.0199,
        "meta_ra_of_asc_node": 175.5712,
        "meta_arg_of_pericenter": 228.754,
        "meta_mean_anomaly": 259.5492,
        "meta_ephemeris_type": 0,
        "meta_classification_type": "U",
        "meta_norad_cat_id": 34271,
        "meta_element_set_no": 999,
        "meta_rev_at_epoch": 88414,
        "meta_bstar": 0.0022534267,
        "meta_mean_motion_dot": 0.00013867,
        "meta_mean_motion_ddot": 0,
        "tle_line1": "1 34271U 93036LR  25358.96426888  .00013867  00000+0  22534-2 0  9994",
        "tle_line2": "2 34271  74.0199 175.5712 0018132 228.7540 259.5492 14.71028342884143"
      },
      "geometry": {
        "type": "Point",
        "coordinates": [
          -122.61203782366893,
          72.2088430074932
        ]
      }
    },
    {
      "type": "Feature",
      "properties": {
        "norad_id": 34273,
        "name": "COSMOS 2251 DEB",
        "group": "cosmos-2251-debris",
        "lat": 12.783504097436774,
        "lon": 66.36330127380585,
        "alt_km": 699.1178080871177,
        "timestamp": "2025-12-25T16:53:15.057640+00:00",
        "meta_object_name": "COSMOS 2251 DEB",
        "meta_object_id": "1993-036LT",
        "meta_epoch": "2025-12-24T23:01:23.216736",
        "meta_mean_motion": 14.61329455,
        "meta_eccentricity": 0.00133915,
        "meta_inclination": 74.0357,
        "meta_ra_of_asc_node": 64.0621,
        "meta_arg_of_pericenter": 189.5178,
        "meta_mean_anomaly": 229.6507,
        "meta_ephemeris_type": 0,
        "meta_classification_type": "U",
        "meta_norad_cat_id": 34273,
        "meta_element_set_no": 999,
        "meta_rev_at_epoch": 88800,
        "meta_bstar": 0.00091560083,
        "meta_mean_motion_dot": 4.502e-05,
        "meta_mean_motion_ddot": 0,
        "tle_line1": "1 34273U 93036LT  25358.95929649  .00004502  00000+0  91560-3 0  9990",
        "tle_line2": "2 34273  74.0357  64.0621 0013391 189.5178 229.6507 14.61329455888007"
      },
      "geometry": {
        "type": "Point",
        "coordinates": [
          66.36330127380585,
          12.783504097436774
        ]
      }
    },
    {
      "type": "Feature",
      "properties": {
        "norad_id": 34274,
        "name": "COSMOS 2251 DEB",
        "group": "cosmos-2251-debris",
        "lat": -72.38001112076887,
        "lon": -71.82624198797228,
        "alt_km": 679.1566950336401,
        "timestamp": "2025-12-25T16:53:15.057650+00:00",
        "meta_object_name": "COSMOS 2251 DEB",
        "meta_object_id": "1993-036LU",
        "meta_epoch": "2025-12-25T04:28:45.593184",
        "meta_mean_motion": 14.64917896,
        "meta_eccentricity": 0.00213024,
        "meta_inclination": 74.0036,
        "meta_ra_of_asc_node": 44.5839,
        "meta_arg_of_pericenter": 193.3978,
        "meta_mean_anomaly": 223.4637,
        "meta_ephemeris_type": 0,
        "meta_classification_type": "U",
        "meta_norad_cat_id": 34274,
        "meta_element_set_no": 999,
        "meta_rev_at_epoch": 88858,
        "meta_bstar": 0.0010813053,
        "meta_mean_motion_dot": 5.777e-05,
        "meta_mean_motion_ddot": 0,
        "tle_line1": "1 34274U 93036LU  25359.18663881  .00005777  00000+0  10813-2 0  9996",
        "tle_line2": "2 34274  74.0036  44.5839 0021302 193.3978 223.4637 14.64917896888582"
      },
      "geometry": {
        "type": "Point",
        "coordinates": [
          -71.82624198797228,
          -72.38001112076887
        ]
      }
    },
    {
      "type": "Feature",
      "properties": {
        "norad_id": 34276,
        "name": "COSMOS 2251 DEB",
        "group": "cosmos-2251-debris",
        "lat": -25.17539932469302,
        "lon": -111.58830253398915,
        "alt_km": 691.481579832589,
        "timestamp": "2025-12-25T16:53:15.057660+00:00",
        "meta_object_name": "COSMOS 2251 DEB",
        "meta_object_id": "1993-036LW",
        "meta_epoch": "2025-12-25T04:33:15.091200",
        "meta_mean_motion": 14.57305702,
        "meta_eccentricity": 0.0022104,
        "meta_inclination": 74.0232,
        "meta_ra_of_asc_node": 61.6492,
        "meta_arg_of_pericenter": 207.2392,
        "meta_mean_anomaly": 184.0035,
        "meta_ephemeris_type": 0,
        "meta_classification_type": "U",
        "meta_norad_cat_id": 34276,
        "meta_element_set_no": 999,
        "meta_rev_at_epoch": 88774,
        "meta_bstar": 0.00070856881,
        "meta_mean_motion_dot": 3.189e-05,
        "meta_mean_motion_ddot": 0,
        "tle_line1": "1 34276U 93036LW  25359.18975800  .00003189  00000+0  70857-3 0  9995",
        "tle_line2": "2 34276  74.0232  61.6492 0022104 207.2392 184.0035 14.57305702887743"
      },
      "geometry": {
        "type": "Point",
        "coordinates": [
          -111.58830253398915,
          -25.17539932469302
        ]
      }
    },
    {
      "type": "Feature",
      "properties": {
        "norad_id": 34297,
        "name": "COSMOS 2251 DEB",
        "group": "cosmos-2251-debris",
        "lat": -22.95409849247517,
        "lon": -106.52931339222953,
        "alt_km": 762.1766515365325,
        "timestamp": "2025-12-25T16:53:15.057671+00:00",
        "meta_object_name": "COSMOS 2251 DEB",
        "meta_object_id": "1993-036MT",
        "meta_epoch": "2025-12-24T21:16:52.151808",
        "meta_mean_motion": 14.3663932,
        "meta_eccentricity": 0.0017737,
        "meta_inclination": 74.0486,
        "meta_ra_of_asc_node": 261.9278,
        "meta_arg_of_pericenter": 328.4093,
        "meta_mean_anomaly": 104.3464,
        "meta_ephemeris_type": 0,
        "meta_classification_type": "U",
        "meta_norad_cat_id": 34297,
        "meta_element_set_no": 999,
        "meta_rev_at_epoch": 88239,
        "meta_bstar": 0.00013341,
        "meta_mean_motion_dot": 3.67e-06,
        "meta_mean_motion_ddot": 0,
        "tle_line1": "1 34297U 93036MT  25358.88671472  .00000367  00000+0  13341-3 0  9992",
        "tle_line2": "2 34297  74.0486 261.9278 0017737 328.4093 104.3464 14.36639320882394"
      },
      "geometry": {
        "type": "Point",
        "coordinates": [
          -106.52931339222953,
          -22.95409849247517
        ]
      }
    }
  ]
}